{
  "type": "FeatureCollection",
  "features": [
    {
      "type": "Feature",
      "properties": {
        "norad_id": 29268,
        "name": "ARIRANG-2 (KOMPSAT-2)",
        "group": "resource",
        "lat": -1.5985539060558727,
        "lon": -3.5826061909978675,
        "alt_km": 687.0314411869276,
        "timestamp": "2025-12-14T05:42:18.113978+00:00",
        "meta_object_name": "ARIRANG-2 (KOMPSAT-2)",
        "meta_object_id": "2006-031A",
        "meta_epoch": "2025-12-13T16:03:07.748352",
        "meta_mean_motion": 14.64495961,
        "meta_eccentricity": 0.00134749,
        "meta_inclination": 97.8264,
        "meta_ra_of_asc_node": 176.0964,
        "meta_arg_of_pericenter": 306.0185,
        "meta_mean_anomaly": 118.2198,
        "meta_ephemeris_type": 0,
        "meta_classification_type": "U",
        "meta_norad_cat_id": 29268,
        "meta_element_set_no": 999,
        "meta_rev_at_epoch": 3432,
        "meta_bstar": 0.00017307601,
        "meta_mean_motion_dot": 8.73e-06,
        "meta_mean_motion_ddot": 0,
        "tle_line1": "1 29268U 06031A   25347.66883968  .00000873  00000+0  17308-3 0  9991",
        "tle_line2": "2 29268  97.8264 176.0964 0013474 306.0185 118.2198 14.64495961 34321"
      },
      "geometry": {
        "type": "Point",
        "coordinates": [
          -3.5826061909978675,
          -1.5985539060558727
        ]
      }
    },
    {
      "type": "Feature",
      "properties": {
        "norad_id": 29709,
        "name": "LAPAN-TUBSAT",
        "group": "resource",
        "lat": -49.71270629342907,
        "lon": 148.72112986593007,
        "alt_km": 627.3306858228907,
        "timestamp": "2025-12-14T05:42:18.113989+00:00",
        "meta_object_name": "LAPAN-TUBSAT",
        "meta_object_id": "2007-001A",
        "meta_epoch": "2025-12-13T15:44:27.623328",
        "meta_mean_motion": 14.85671381,
        "meta_eccentricity": 0.00135622,
        "meta_inclination": 98.126,
        "meta_ra_of_asc_node": 337.8311,
        "meta_arg_of_pericenter": 71.3903,
        "meta_mean_anomaly": 288.8783,
        "meta_ephemeris_type": 0,
        "meta_classification_type": "U",
        "meta_norad_cat_id": 29709,
        "meta_element_set_no": 999,
        "meta_rev_at_epoch": 2360,
        "meta_bstar": 0.00011362393,
        "meta_mean_motion_dot": 9.29e-06,
        "meta_mean_motion_ddot": 0,
        "tle_line1": "1 29709U 07001A   25347.65587527  .00000929  00000+0  11362-3 0  9996",
        "tle_line2": "2 29709  98.1260 337.8311 0013562  71.3903 288.8783 14.85671381 23600"
      },
      "geometry": {
        "type": "Point",
        "coordinates": [
          148.72112986593007,
          -49.71270629342907
        ]
      }
    },
    {
      "type": "Feature",
      "properties": {
        "norad_id": 31113,
        "name": "HAIYANG-1B",
        "group": "resource",
        "lat": -1.109968369871958,
        "lon": 152.29118612868854,
        "alt_km": 800.1761168200737,
        "timestamp": "2025-12-14T05:42:18.114000+00:00",
        "meta_object_name": "HAIYANG-1B",
        "meta_object_id": "2007-010A",
        "meta_epoch": "2025-12-13T12:04:52.085568",
        "meta_mean_motion": 14.30965527,
        "meta_eccentricity": 0.00142299,
        "meta_inclination": 98.3315,
        "meta_ra_of_asc_node": 331.7499,
        "meta_arg_of_pericenter": 35.7934,
        "meta_mean_anomaly": 324.4201,
        "meta_ephemeris_type": 0,
        "meta_classification_type": "U",
        "meta_norad_cat_id": 31113,
        "meta_element_set_no": 999,
        "meta_rev_at_epoch": 97407,
        "meta_bstar": 0.00010070388,
        "meta_mean_motion_dot": 2.23e-06,
        "meta_mean_motion_ddot": 0,
        "tle_line1": "1 31113U 07010A   25347.50338062  .00000223  00000+0  10070-3 0  9992",
        "tle_line2": "2 31113  98.3315 331.7499 0014229  35.7934 324.4201 14.30965527974070"
      },
      "geometry": {
        "type": "Point",
        "coordinates": [
          152.29118612868854,
          -1.109968369871958
        ]
      }
    },
    {
      "type": "Feature",
      "properties": {
        "norad_id": 31598,
        "name": "COSMO-SKYMED 1",
        "group": "resource",
        "lat": -59.806672565776736,
        "lon": -20.13027089317026,
        "alt_km": 587.9040875805867,
        "timestamp": "2025-12-14T05:42:18.114011+00:00",
        "meta_object_name": "COSMO-SKYMED 1",
        "meta_object_id": "2007-023A",
        "meta_epoch": "2025-12-13T15:47:17.342304",
        "meta_mean_motion": 14.95773595,
        "meta_eccentricity": 0.0001295,
        "meta_inclination": 97.8834,
        "meta_ra_of_asc_node": 173.0628,
        "meta_arg_of_pericenter": 90.4268,
        "meta_mean_anomaly": 269.7101,
        "meta_ephemeris_type": 0,
        "meta_classification_type": "U",
        "meta_norad_cat_id": 31598,
        "meta_element_set_no": 999,
        "meta_rev_at_epoch": 204,
        "meta_bstar": 0.00045383365,
        "meta_mean_motion_dot": 5.003e-05,
        "meta_mean_motion_ddot": 0,
        "tle_line1": "1 31598U 07023A   25347.65783961  .00005003  00000+0  45383-3 0  9997",
        "tle_line2": "2 31598  97.8834 173.0628 0001295  90.4268 269.7101 14.95773595  2047"
      },
      "geometry": {
        "type": "Point",
        "coordinates": [
          -20.13027089317026,
          -59.806672565776736
        ]
      }
    },
    {
      "type": "Feature",
      "properties": {
        "norad_id": 31698,
        "name": "TERRASAR-X",
        "group": "resource",
        "lat": 22.077940115676572,
        "lon": -9.44507112256753,
        "alt_km": 507.70270502697076,
        "timestamp": "2025-12-14T05:42:18.114022+00:00",
        "meta_object_name": "TERRASAR-X",
        "meta_object_id": "2007-026A",
        "meta_epoch": "2025-12-13T12:13:05.117664",
        "meta_mean_motion": 15.19151549,
        "meta_eccentricity": 0.00017647,
        "meta_inclination": 97.4456,
        "meta_ra_of_asc_node": 352.8775,
        "meta_arg_of_pericenter": 89.7934,
        "meta_mean_anomaly": 270.3503,
        "meta_ephemeris_type": 0,
        "meta_classification_type": "U",
        "meta_norad_cat_id": 31698,
        "meta_element_set_no": 999,
        "meta_rev_at_epoch": 2503,
        "meta_bstar": 0.00010409632,
        "meta_mean_motion_dot": 2.12e-05,
        "meta_mean_motion_ddot": 0,
        "tle_line1": "1 31698U 07026A   25347.50908701  .00002120  00000+0  10410-3 0  9996",
        "tle_line2": "2 31698  97.4456 352.8775 0001764  89.7934 270.3503 15.19151549 25030"
      },
      "geometry": {
        "type": "Point",
        "coordinates": [
          -9.44507112256753,
          22.077940115676572
        ]
      }
    },
    {
      "type": "Feature",
      "properties": {
        "norad_id": 32060,
        "name": "WORLDVIEW-1 (WV-1)",
        "group": "resource",
        "lat": 52.90008842879456,
        "lon": 95.82483593653038,
        "alt_km": 486.38949207537735,
        "timestamp": "2025-12-14T05:42:18.114032+00:00",
        "meta_object_name": "WORLDVIEW-1 (WV-1)",
        "meta_object_id": "2007-041A",
        "meta_epoch": "2025-12-13T13:43:12.987840",
        "meta_mean_motion": 15.24707792,
        "meta_eccentricity": 8.102e-05,
        "meta_inclination": 97.383,
        "meta_ra_of_asc_node": 105.0405,
        "meta_arg_of_pericenter": 109.7659,
        "meta_mean_anomaly": 250.3666,
        "meta_ephemeris_type": 0,
        "meta_classification_type": "U",
        "meta_norad_cat_id": 32060,
        "meta_element_set_no": 999,
        "meta_rev_at_epoch": 1460,
        "meta_bstar": 0.00038918492,
        "meta_mean_motion_dot": 9.56e-05,
        "meta_mean_motion_ddot": 0,
        "tle_line1": "1 32060U 07041A   25347.57167810  .00009560  00000+0  38918-3 0  9990",
        "tle_line2": "2 32060  97.3830 105.0405 0000810 109.7659 250.3666 15.24707792 14607"
      },
      "geometry": {
        "type": "Point",
        "coordinates": [
          95.82483593653038,
          52.90008842879456
        ]
      }
    },
    {
      "type": "Feature",
      "properties": {
        "norad_id": 32289,
        "name": "YAOGAN-3",
        "group": "resource",
        "lat": 57.34153989430478,
        "lon": 2.4407059323515807,
        "alt_km": 592.0052592012444,
        "timestamp": "2025-12-14T05:42:18.114043+00:00",
        "meta_object_name": "YAOGAN-3",
        "meta_object_id": "2007-055A",
        "meta_epoch": "2025-12-13T16:32:59.355168",
        "meta_mean_motion": 14.89866614,
        "meta_eccentricity": 0.00012616,
        "meta_inclination": 97.8368,
        "meta_ra_of_asc_node": 14.306,
        "meta_arg_of_pericenter": 78.5211,
        "meta_mean_anomaly": 281.6149,
        "meta_ephemeris_type": 0,
        "meta_classification_type": "U",
        "meta_norad_cat_id": 32289,
        "meta_element_set_no": 999,
        "meta_rev_at_epoch": 97823,
        "meta_bstar": 0.00049922217,
        "meta_mean_motion_dot": 4.744e-05,
        "meta_mean_motion_ddot": 0,
        "tle_line1": "1 32289U 07055A   25347.68957587  .00004744  00000+0  49922-3 0  9994",
        "tle_line2": "2 32289  97.8368  14.3060 0001261  78.5211 281.6149 14.89866614978238"
      },
      "geometry": {
        "type": "Point",
        "coordinates": [
          2.4407059323515807,
          57.34153989430478
        ]
      }
    }
  ]
}